*******************************************************************************
Ephemeris / WWW_USER Fri Sep 25 07:34:56 2020 Pasadena, USA      / Horizons
*******************************************************************************
Target body name: Mercury (199)                   {source: DE431mx}
Center body name: Sun (10)                        {source: DE431mx}
Center-site name: BODY CENTER
*******************************************************************************
Start time      : A.D. 2020-Sep-22 00:00:00.0000 TDB
Stop  time      : A.D. 2021-Sep-22 00:00:00.0000 TDB
Step-size       : 14400 minutes
*******************************************************************************
Center geodetic : 0.00000000,0.00000000,0.0000000 {E-lon(deg),Lat(deg),Alt(km)}
Center cylindric: 0.00000000,0.00000000,0.0000000 {E-lon(deg),Dxy(km),Dz(km)}
Center radii    : 696000.0 x 696000.0 x 696000.0 k{Equator, meridian, pole}    
Output units    : AU-D
Output type     : GEOMETRIC cartesian states
Output format   : 1 (position only)
Reference frame : Ecliptic of B1950.0
*******************************************************************************
            JDTDB,            Calendar Date (TDB),                      X,                      Y,                      Z,
**************************************************************************************************************************
$$SOE
2459114.500000000, A.D. 2020-Sep-22 00:00:00.0000, -4.458245457986859E-02, -4.621529724488664E-01, -3.418100146792877E-02,
2459124.500000000, A.D. 2020-Oct-02 00:00:00.0000,  1.744292899681515E-01, -4.052779969432055E-01, -4.934939775252668E-02,
2459134.500000000, A.D. 2020-Oct-12 00:00:00.0000,  3.323182479597936E-01, -2.143021257809238E-01, -4.787961434953691E-02,
2459144.500000000, A.D. 2020-Oct-22 00:00:00.0000,  3.339777187775863E-01,  6.763229342015049E-02, -2.471032517927972E-02,
2459154.500000000, A.D. 2020-Nov-01 00:00:00.0000,  1.075385534092263E-01,  2.881684400106697E-01,  1.407769628579272E-02,
2459164.500000000, A.D. 2020-Nov-11 00:00:00.0000, -2.124223476466573E-01,  2.499305636286102E-01,  3.994747576962195E-02,
2459174.500000000, A.D. 2020-Nov-21 00:00:00.0000, -3.838319686753050E-01,  1.387987615833332E-02,  3.597611368765154E-02,
2459184.500000000, A.D. 2020-Dec-01 00:00:00.0000, -3.639498746286088E-01, -2.389555891785504E-01,  1.325897541215142E-02,
2459194.500000000, A.D. 2020-Dec-11 00:00:00.0000, -2.133922048260197E-01, -4.107088576984722E-01, -1.460874058200181E-02,
2459204.500000000, A.D. 2020-Dec-21 00:00:00.0000,  1.038467837162132E-03, -4.617749959552136E-01, -3.828958954946077E-02,
2459214.500000000, A.D. 2020-Dec-31 00:00:00.0000,  2.141700209469441E-01, -3.768799844869251E-01, -5.060660247366750E-02,
2459224.500000000, A.D. 2021-Jan-10 00:00:00.0000,  3.487285266288342E-01, -1.615737658407464E-01, -4.500718566403749E-02,
2459234.500000000, A.D. 2021-Jan-20 00:00:00.0000,  3.064761516771845E-01,  1.249372663770536E-01, -1.747472235123809E-02,
2459244.500000000, A.D. 2021-Jan-30 00:00:00.0000,  4.080135445380119E-02,  3.042895679413676E-01,  2.146693142191449E-02,
2459254.500000000, A.D. 2021-Feb-09 00:00:00.0000, -2.637210027242883E-01,  2.114287289015084E-01,  4.141752695902522E-02,
2459264.500000000, A.D. 2021-Feb-19 00:00:00.0000, -3.937478983433051E-01, -4.058263781371903E-02,  3.237078747859114E-02,
2459274.500000000, A.D. 2021-Mar-01 00:00:00.0000, -3.416921243071860E-01, -2.822146377123876E-01,  7.660870928920996E-03,
2459284.500000000, A.D. 2021-Mar-11 00:00:00.0000, -1.729396708483229E-01, -4.315904236514806E-01, -2.000683748262148E-02,
2459294.500000000, A.D. 2021-Mar-21 00:00:00.0000,  4.665220650534249E-02, -4.557333692079624E-01, -4.192895642282703E-02,
2459304.500000000, A.D. 2021-Mar-31 00:00:00.0000,  2.507689299046054E-01, -3.429483505393582E-01, -5.112091189021154E-02,
2459314.500000000, A.D. 2021-Apr-10 00:00:00.0000,  3.577970213536629E-01, -1.054502999888507E-01, -4.118768932231000E-02,
2459324.500000000, A.D. 2021-Apr-20 00:00:00.0000,  2.687397163519025E-01,  1.780505914674124E-01, -9.657147421984162E-03,
2459334.500000000, A.D. 2021-Apr-30 00:00:00.0000, -2.765002518640963E-02,  3.077454233067673E-01,  2.796401821691529E-02,
2459344.500000000, A.D. 2021-May-10 00:00:00.0000, -3.069152513680559E-01,  1.663862332340718E-01,  4.161111962929489E-02,
2459354.500000000, A.D. 2021-May-20 00:00:00.0000, -3.959995309398869E-01, -9.426971025290684E-02,  2.813417497129215E-02,
2459364.500000000, A.D. 2021-May-30 00:00:00.0000, -3.146443872340106E-01, -3.215234780682534E-01,  1.954970723921846E-03,
2459374.500000000, A.D. 2021-Jun-09 00:00:00.0000, -1.303924036520958E-01, -4.472476838743342E-01, -2.516271647886991E-02,
2459384.500000000, A.D. 2021-Jun-19 00:00:00.0000,  9.168014957172552E-02, -4.439806870863456E-01, -4.504256342844955E-02,
2459394.500000000, A.D. 2021-Jun-29 00:00:00.0000,  2.834590767655410E-01, -3.036832491139314E-01, -5.083915031950492E-02,
2459404.500000000, A.D. 2021-Jul-09 00:00:00.0000,  3.586111207218322E-01, -4.691787908248427E-02, -3.641976363429617E-02,
2459414.500000000, A.D. 2021-Jul-19 00:00:00.0000,  2.212905670723835E-01,  2.246819748921669E-01, -1.494394146038420E-03,
2459424.500000000, A.D. 2021-Jul-29 00:00:00.0000, -9.497886881476592E-02,  2.986898956769845E-01,  3.332421539029597E-02,
2459434.500000000, A.D. 2021-Aug-08 00:00:00.0000, -3.415131732568088E-01,  1.166664639158996E-01,  4.063761787427255E-02,
2459444.500000000, A.D. 2021-Aug-18 00:00:00.0000, -3.911370036747855E-01, -1.462685910000945E-01,  2.339151132840140E-02,
2459454.500000000, A.D. 2021-Aug-28 00:00:00.0000, -2.833778579081378E-01, -3.565231970169829E-01, -3.777403955692556E-03,
2459464.500000000, A.D. 2021-Sep-07 00:00:00.0000, -8.627941695472451E-02, -4.575311406185218E-01, -3.001616647990842E-02,
2459474.500000000, A.D. 2021-Sep-17 00:00:00.0000,  1.355207164823463E-01, -4.265028173843551E-01, -4.757469521972491E-02,
$$EOE
**************************************************************************************************************************
Coordinate system description:

  Ecliptic at the standard reference epoch

    Reference epoch: B1950.0
    X-Y plane: adopted Earth orbital plane at the reference epoch
               Note: obliquity of 84404.8362512 arcseconds wrt FK4 equator
    X-axis   : ICRF
    Z-axis   : perpendicular to the X-Y plane in the directional (+ or -) sense
               of Earth's north pole at the reference epoch.

  Symbol meaning [1 au= 149597870.700 km, 1 day= 86400.0 s]:

    JDTDB    Julian Day Number, Barycentric Dynamical Time
      X      X-component of position vector (au)
      Y      Y-component of position vector (au)
      Z      Z-component of position vector (au)

Geometric states/elements have no aberrations applied.


 Computations by ...
     Solar System Dynamics Group, Horizons On-Line Ephemeris System
     4800 Oak Grove Drive, Jet Propulsion Laboratory
     Pasadena, CA  91109   USA
     Information  : https://ssd.jpl.nasa.gov/
     Documentation: https://ssd.jpl.nasa.gov/?horizons_doc
     Connect      : https://ssd.jpl.nasa.gov/?horizons (browser)
                    telnet ssd.jpl.nasa.gov 6775       (command-line)
                    e-mail command interface available
                    Script and CGI interfaces available
     Author       : Jon.D.Giorgini@jpl.nasa.gov
*******************************************************************************
